MALLIGYONG-1            
1 58400U 23179A   24215.55092268  .00008282  00000+0  36844-3 0  9997
2 58400  97.3978 101.6149 0003132  66.7585 293.3981 15.21734346 38776
